IRIDIUM 171             
1 43929U 19002H   24198.68540408  .00000091  00000+0  25580-4 0  9991
2 43929  86.3974 286.5394 0002197  88.9792 271.1656 14.34218178288550
IRIDIUM 170             
1 43930U 19002J   24198.68999531  .00001806  00000+0  28237-3 0  9994
2 43930  86.6093 286.3522 0002345  94.8807 265.2678 14.72269097296191
IRIDIUM 167             
1 43931U 19002K   24199.23720970  .00000140  00000+0  42921-4 0  9993
2 43931  86.3964 286.0960 0002277  92.6426 267.5030 14.34218352288639
IRIDIUM 181             
1 56726U 23068S   24198.77458027  .00000621  00000+0  17770-3 0  9992
2 56726  86.8656 341.4594 0002426  89.3750 270.7729 14.43584950 61401
IRIDIUM 177             
1 56727U 23068T   24198.83472122  .00002695  00000+0  35118-3 0  9991
2 56727  86.1987 301.2840 0002221  88.5722 271.5753 14.80228029 62762
IRIDIUM 174             
1 56728U 23068U   24198.69407392  .00002585  00000+0  33671-3 0  9993
2 56728  86.1993 301.4569 0002086  86.1144 274.0316 14.80228219 62743
IRIDIUM 178             
1 56729U 23068V   24198.89148292  .00000549  00000+0  68777-4 0  9991
2 56729  86.5800 320.2364 0002452 102.1660 257.9836 14.80246234 62773
IRIDIUM 179             
1 56730U 23068W   24198.88606911  .00002796  00000+0  36430-3 0  9995
2 56730  86.6809 324.7471 0002526  97.8207 262.3302 14.80256365 62776
